STARLINK-2058
1 17667C 21012AZ  21326.14065036  .00005528  00000-0  37036-3 0  3261
2 17667  53.0540 273.1164 0001623  69.1890 153.8399 15.06393320    19
